NORAD_CAT_ID,OBJECT_NAME,OBJECT_TYPE,EPOCH,MEAN_MOTION,ECCENTRICITY,INCLINATION,RA_OF_ASC_NODE,ARG_OF_PERICENTER,MEAN_ANOMALY,BSTAR,MEAN_MOTION_DOT,MEAN_MOTION_DDOT,TLE_LINE0,TLE_LINE1,TLE_LINE2,SEMIMAJOR_AXIS,PERIOD,APOGEE,PERIGEE,DECAYED
49444.0,STARLINK-3126,PAYLOAD,2023-10-09 19:51:38,15.08837149,0.0001704,53.2165,207.9645,86.0279,274.0908,-6.9744e-05,-1.398e-05,0.0,0 STARLINK-3126,1 49444U 21104AN  23282.82753213 -.00001398  00000-0 -69744-4 0  9998,2 49444  53.2165 207.9645 0001704  86.0279 274.0908 15.08837149106852,6917.889,95.438,540.933,538.575,0.0
49444.0,STARLINK-3126,PAYLOAD,2023-10-10 02:13:10,15.08852874,0.0001416,53.2166,206.7753,99.8154,260.2998,0.0002509,3.709e-05,0.0,0 STARLINK-3126,1 49444U 21104AN  23283.09248578  .00003709  00000-0  25090-3 0  9992,2 49444  53.2166 206.7753 0001416  99.8154 260.2998 15.08852874106896,6917.841,95.437,540.686,538.726,0.0
49444.0,STARLINK-3126,PAYLOAD,2023-10-10 11:45:30,15.08836513,0.0002257,53.2163,204.9902,88.0196,272.1055,6.2028e-05,6.99e-06,0.0,0 STARLINK-3126,1 49444U 21104AN  23283.48993452  .00000699  00000-0  62028-4 0  9991,2 49444  53.2163 204.9902 0002257  88.0196 272.1055 15.08836513106954,6917.891,95.438,541.317,538.195,0.0
49444.0,STARLINK-3126,PAYLOAD,2023-10-11 11:36:17,15.08831037,0.0001361,53.2167,200.5302,95.1422,264.9726,-6.3711e-07,-2.98e-06,0.0,0 STARLINK-3126,1 49444U 21104AN  23284.48354096 -.00000298  00000-0 -63711-6 0  9996,2 49444  53.2167 200.5302 0001361  95.1422 264.9726 15.08831037107108,6917.908,95.438,540.714,538.831,0.0
49444.0,STARLINK-3126,PAYLOAD,2023-10-12 03:30:09,15.08848956,0.0001315,53.2168,197.5576,98.837,261.2771,0.00054336,8.372e-05,0.0,0 STARLINK-3126,1 49444U 21104AN  23285.14593966  .00008372  00000-0  54336-3 0  9990,2 49444  53.2168 197.5576 0001315  98.8370 261.2771 15.08848956107207,6917.853,95.437,540.628,538.808,0.0
49444.0,STARLINK-3126,PAYLOAD,2023-10-12 11:27:05,15.08840018,0.0001339,53.2171,196.0713,89.2814,270.8331,0.00036169,5.473e-05,0.0,0 STARLINK-3126,1 49444U 21104AN  23285.47714431  .00005473  00000-0  36169-3 0  9991,2 49444  53.2171 196.0713 0001339  89.2814 270.8331 15.08840018106186,6917.88,95.438,540.672,538.819,0.0
49444.0,STARLINK-3126,PAYLOAD,2023-10-12 17:48:37,15.08841586,0.0001574,53.2173,194.8831,81.9051,278.2119,0.00032135,4.83e-05,0.0,0 STARLINK-3126,1 49444U 21104AN  23285.74210417  .00004830  00000-0  32135-3 0  9991,2 49444  53.2173 194.8831 0001574  81.9051 278.2119 15.08841586107298,6917.876,95.437,540.829,538.652,0.0
49444.0,STARLINK-3126,PAYLOAD,2023-10-12 22:34:47,15.08845522,0.0001429,53.217,193.9916,81.8436,278.2718,0.00038312,5.816e-05,0.0,0 STARLINK-3126,1 49444U 21104AN  23285.94082302  .00005816  00000-0  38312-3 0  9991,2 49444  53.2170 193.9916 0001429  81.8436 278.2718 15.08845522106258,6917.864,95.437,540.717,538.74,0.0
49444.0,STARLINK-3126,PAYLOAD,2023-10-13 11:17:51,15.08851979,0.0001402,53.2161,191.6116,93.1627,266.9525,0.00034219,5.164e-05,0.0,0 STARLINK-3126,1 49444U 21104AN  23286.47073813  .00005164  00000-0  34219-3 0  9995,2 49444  53.2161 191.6116 0001402  93.1627 266.9525 15.08851979106336,6917.844,95.437,540.679,538.739,0.0
49444.0,STARLINK-3126,PAYLOAD,2023-10-13 22:25:33,15.08853146,0.0001069,53.2173,189.5285,103.5062,256.6049,0.00025585,3.788e-05,0.0,0 STARLINK-3126,1 49444U 21104AN  23286.93441410  .00003788  00000-0  25585-3 0  9994,2 49444  53.2173 189.5285 0001069 103.5062 256.6049 15.08853146106403,6917.84,95.437,540.445,538.966,0.0
49444.0,STARLINK-3126,PAYLOAD,2023-10-14 00:00:56,15.08867613,0.0001217,53.2166,189.2306,100.6983,259.4146,0.00057812,8.932e-05,0.0,0 STARLINK-3126,1 49444U 21104AN  23287.00064951  .00008932  00000-0  57812-3 0  9998,2 49444  53.2166 189.2306 0001217 100.6983 259.4146 15.08867613107483,6917.796,95.436,540.503,538.819,0.0
49444.0,STARLINK-3126,PAYLOAD,2023-10-14 11:08:38,15.08848765,0.0001246,53.2168,187.1496,92.5284,267.5851,0.00015258,2.142e-05,0.0,0 STARLINK-3126,1 49444U 21104AN  23287.46433349  .00002142  00000-0  15258-3 0  9994,2 49444  53.2168 187.1496 0001246  92.5284 267.5851 15.08848765106486,6917.854,95.437,540.581,538.857,0.0
49444.0,STARLINK-3126,PAYLOAD,2023-10-14 20:40:57,15.08828593,0.0001483,53.2162,185.3681,80.3126,279.8034,-0.00024433,-4.173e-05,0.0,0 STARLINK-3126,1 49444U 21104AN  23287.86178237 -.00004173  00000-0 -24433-3 0  9993,2 49444  53.2162 185.3681 0001483  80.3126 279.8034 15.08828593107611,6917.915,95.438,540.806,538.754,0.0
49444.0,STARLINK-3126,PAYLOAD,2023-10-14 22:16:21,15.08829331,0.0001464,53.2159,185.0703,82.2996,277.8162,-0.00020298,-3.516e-05,0.0,0 STARLINK-3126,1 49444U 21104AN  23287.92802253 -.00003516  00000-0 -20298-3 0  9997,2 49444  53.2159 185.0703 0001464  82.2996 277.8162 15.08829331106557,6917.913,95.438,540.791,538.765,0.0
49444.0,STARLINK-3126,PAYLOAD,2023-10-15 03:02:30,15.08834039,0.0001488,53.2163,184.1759,90.4261,269.6901,0.00012374,1.682e-05,0.0,0 STARLINK-3126,1 49444U 21104AN  23288.12674171  .00001682  00000-0  12374-3 0  9992,2 49444  53.2163 184.1759 0001488  90.4261 269.6901 15.08834039107658,6917.899,95.438,540.793,538.734,0.0
49444.0,STARLINK-3126,PAYLOAD,2023-10-15 22:07:08,15.08844523,0.0001507,53.2163,180.6085,86.18,273.9364,0.00079253,0.00012349,0.0,0 STARLINK-3126,1 49444U 21104AN  23288.92162612  .00012349  00000-0  79253-3 0  9993,2 49444  53.2163 180.6085 0001507  86.1800 273.9364 15.08844523106709,6917.867,95.437,540.774,538.689,0.0
49444.0,STARLINK-3126,PAYLOAD,2023-10-15 23:42:31,15.08852473,0.0001485,53.2163,180.3107,87.7985,272.3177,0.001053,0.00016516,0.0,0 STARLINK-3126,1 49444U 21104AN  23288.98786478  .00016516  00000-0  10530-2 0  9993,2 49444  53.2163 180.3107 0001485  87.7985 272.3177 15.08852473107784,6917.842,95.437,540.735,538.68,0.0
49444.0,STARLINK-3126,PAYLOAD,2023-10-16 17:11:45,15.08853218,0.0001459,53.216,177.04,85.6264,274.4895,0.00066895,0.00010378,0.0,0 STARLINK-3126,1 49444U 21104AN  23289.71650391  .00010378  00000-0  66895-3 0  9995,2 49444  53.2160 177.0400 0001459  85.6264 274.4895 15.08853218107898,6917.84,95.437,540.714,538.696,0.0
49444.0,STARLINK-3126,PAYLOAD,2023-10-17 09:05:37,15.0884694,0.0001375,53.2161,174.0659,85.3563,274.7587,0.00028994,4.33e-05,0.0,0 STARLINK-3126,1 49444U 21104AN  23290.37890210  .00004330  00000-0  28994-3 0  9994,2 49444  53.2161 174.0659 0001375  85.3563 274.7587 15.08846940107994,6917.859,95.437,540.675,538.773,0.0
49444.0,STARLINK-3126,PAYLOAD,2023-10-17 23:24:05,15.08850268,0.0001259,53.2159,171.3903,87.9229,272.1907,0.00019075,2.75e-05,0.0,0 STARLINK-3126,1 49444U 21104AN  23290.97505974  .00002750  00000-0  19075-3 0  9994,2 49444  53.2159 171.3903 0001259  87.9229 272.1907 15.08850268107010,6917.849,95.437,540.585,538.843,0.0
49444.0,STARLINK-3126,PAYLOAD,2023-10-18 08:56:23,15.08851321,9.75e-05,53.2155,169.6044,69.7907,290.319,0.00024077,3.547e-05,0.0,0 STARLINK-3126,1 49444U 21104AN  23291.37249773  .00003547  00000-0  24077-3 0  9994,2 49444  53.2155 169.6044 0000975  69.7907 290.3190 15.08851321108149,6917.846,95.437,540.385,539.036,0.0
49444.0,STARLINK-3126,PAYLOAD,2023-10-19 02:25:38,15.08842547,0.0002151,53.2185,166.3324,80.286,279.8375,0.0001551,2.181e-05,0.0,0 STARLINK-3126,1 49444U 21104AN  23292.10114583  .00002181  00000-0  15510-3 0  9991,2 49444  53.2185 166.3324 0002151  80.2860 279.8375 15.08842547108250,6917.873,95.437,541.226,538.25,0.0
49444.0,STARLINK-3126,PAYLOAD,2023-10-19 18:19:29,15.08850661,0.0001588,53.216,163.36,71.6875,288.429,0.00033925,5.117e-05,0.0,0 STARLINK-3126,1 49444U 21104AN  23292.76354076  .00005117  00000-0  33925-3 0  9998,2 49444  53.2160 163.3600 0001588  71.6875 288.4290 15.08850661107280,6917.848,95.437,540.811,538.614,0.0
49444.0,STARLINK-3126,PAYLOAD,2023-10-20 00:41:01,15.08862103,0.0001047,53.2156,162.1709,87.8266,272.2846,0.00052377,8.063e-05,0.0,0 STARLINK-3126,1 49444U 21104AN  23293.02849198  .00008063  00000-0  52377-3 0  9997,2 49444  53.2156 162.1709 0001047  87.8266 272.2846 15.08862103108390,6917.813,95.436,540.402,538.954,0.0
49444.0,STARLINK-3126,PAYLOAD,2023-10-20 21:21:03,15.08833458,0.0001348,53.2171,158.3043,97.4824,262.6322,-3.0736e-05,-7.77e-06,0.0,0 STARLINK-3126,1 49444U 21104AN  23293.88962492 -.00000777  00000-0 -30736-4 0  9996,2 49444  53.2171 158.3043 0001348  97.4824 262.6322 15.08833458107455,6917.9,95.438,540.698,538.833,0.0
49444.0,STARLINK-3126,PAYLOAD,2023-10-21 00:31:50,15.08832103,0.000135,53.2175,157.7094,84.6154,275.4992,1.8032e-05,-1e-08,0.0,0 STARLINK-3126,1 49444U 21104AN  23294.02210725 -.00000001  00000-0  18032-4 0  9992,2 49444  53.2175 157.7094 0001350  84.6154 275.4992 15.08832103108547,6917.905,95.438,540.703,538.836,0.0
49444.0,STARLINK-3126,PAYLOAD,2023-10-21 08:28:45,15.08839732,0.000144,53.216,156.2239,93.7859,266.3298,0.0002085,3.032e-05,0.0,0 STARLINK-3126,1 49444U 21104AN  23294.35330659  .00003032  00000-0  20850-3 0  9993,2 49444  53.2160 156.2239 0001440  93.7859 266.3298 15.08839732107529,6917.881,95.438,540.742,538.75,0.0
49444.0,STARLINK-3126,PAYLOAD,2023-10-21 21:11:49,15.08857973,0.0001547,53.2163,153.8442,85.9666,274.1503,0.00063111,9.775e-05,0.0,0 STARLINK-3126,1 49444U 21104AN  23294.88321743  .00009775  00000-0  63111-3 0  9992,2 49444  53.2163 153.8442 0001547  85.9666 274.1503 15.08857973108678,6917.825,95.436,540.761,538.62,0.0
49444.0,STARLINK-3126,PAYLOAD,2023-10-22 09:54:56,15.08819868,0.000153,53.2166,151.4658,107.3635,252.7525,-0.00019567,-3.399e-05,0.0,0 STARLINK-3126,1 49444U 21104AN  23295.41314929 -.00003399  00000-0 -19567-3 0  9994,2 49444  53.2166 151.4658 0001530 107.3635 252.7525 15.08819868108757,6917.942,95.439,540.865,538.748,0.0
49444.0,STARLINK-3126,PAYLOAD,2023-10-22 21:02:38,15.08829619,0.0001503,53.2156,149.3858,92.8992,267.2172,-0.00011432,-2.106e-05,0.0,0 STARLINK-3126,1 49444U 21104AN  23295.87683143 -.00002106  00000-0 -11432-3 0  9999,2 49444  53.2156 149.3858 0001503  92.8992 267.2172 15.08829619107751,6917.912,95.438,540.817,538.737,0.0
